{
  "type": "FeatureCollection",
  "features": [
    {
      "type": "Feature",
      "properties": {
        "norad_id": 66579,
        "name": "STARLINK-35868",
        "group": "last-30-days",
        "lat": -26.25109027277282,
        "lon": 117.21898932824753,
        "alt_km": 400.0398133513336,
        "timestamp": "2025-12-07T22:37:41.857600+00:00",
        "meta_object_name": "STARLINK-35868",
        "meta_object_id": "2025-268Y",
        "meta_epoch": "2025-12-07T06:00:04.999968",
        "meta_mean_motion": 15.59233929,
        "meta_eccentricity": 0.00017955,
        "meta_inclination": 43.0003,
        "meta_ra_of_asc_node": 153.2691,
        "meta_arg_of_pericenter": 272.5437,
        "meta_mean_anomaly": 117.4217,
        "meta_ephemeris_type": 0,
        "meta_classification_type": "U",
        "meta_norad_cat_id": 66579,
        "meta_element_set_no": 999,
        "meta_rev_at_epoch": 378,
        "meta_bstar": -0.028622204,
        "meta_mean_motion_dot": -0.02023206,
        "meta_mean_motion_ddot": 0,
        "tle_line1": "1 66579U 25268Y   25341.25005787 -.02023206  00000+0 -28622-1 0  9992",
        "tle_line2": "2 66579  43.0003 153.2691 0001795 272.5437 117.4217 15.59233929  3783"
      },
      "geometry": {
        "type": "Point",
        "coordinates": [
          117.21898932824753,
          -26.25109027277282
        ]
      }
    },
    {
      "type": "Feature",
      "properties": {
        "norad_id": 66580,
        "name": "STARLINK-35872",
        "group": "last-30-days",
        "lat": -25.13121088029877,
        "lon": 118.94332305604037,
        "alt_km": 400.0644825716008,
        "timestamp": "2025-12-07T22:37:41.857612+00:00",
        "meta_object_name": "STARLINK-35872",
        "meta_object_id": "2025-268Z",
        "meta_epoch": "2025-12-07T06:00:04.999968",
        "meta_mean_motion": 15.59231892,
        "meta_eccentricity": 0.00016724,
        "meta_inclination": 43.0005,
        "meta_ra_of_asc_node": 153.2649,
        "meta_arg_of_pericenter": 272.0057,
        "meta_mean_anomaly": 119.878,
        "meta_ephemeris_type": 0,
        "meta_classification_type": "U",
        "meta_norad_cat_id": 66580,
        "meta_element_set_no": 999,
        "meta_rev_at_epoch": 378,
        "meta_bstar": -0.028568572,
        "meta_mean_motion_dot": -0.02019659,
        "meta_mean_motion_ddot": 0,
        "tle_line1": "1 66580U 25268Z   25341.25005787 -.02019659  00000+0 -28569-1 0  9991",
        "tle_line2": "2 66580  43.0005 153.2649 0001672 272.0057 119.8780 15.59231892  3785"
      },
      "geometry": {
        "type": "Point",
        "coordinates": [
          118.94332305604037,
          -25.13121088029877
        ]
      }
    },
    {
      "type": "Feature",
      "properties": {
        "norad_id": 66581,
        "name": "STARLINK-35744",
        "group": "last-30-days",
        "lat": -23.994251785074546,
        "lon": 120.63039381793293,
        "alt_km": 399.9610550046682,
        "timestamp": "2025-12-07T22:37:41.857622+00:00",
        "meta_object_name": "STARLINK-35744",
        "meta_object_id": "2025-268AA",
        "meta_epoch": "2025-12-07T06:00:04.999968",
        "meta_mean_motion": 15.59233443,
        "meta_eccentricity": 0.00017166,
        "meta_inclination": 43.0003,
        "meta_ra_of_asc_node": 153.2594,
        "meta_arg_of_pericenter": 273.5591,
        "meta_mean_anomaly": 120.2406,
        "meta_ephemeris_type": 0,
        "meta_classification_type": "U",
        "meta_norad_cat_id": 66581,
        "meta_element_set_no": 999,
        "meta_rev_at_epoch": 373,
        "meta_bstar": -0.028605425,
        "meta_mean_motion_dot": -0.02022075,
        "meta_mean_motion_ddot": 0,
        "tle_line1": "1 66581U 25268AA  25341.25005787 -.02022075  00000+0 -28605-1 0  9999",
        "tle_line2": "2 66581  43.0003 153.2594 0001716 273.5591 120.2406 15.59233443  3731"
      },
      "geometry": {
        "type": "Point",
        "coordinates": [
          120.63039381793293,
          -23.994251785074546
        ]
      }
    },
    {
      "type": "Feature",
      "properties": {
        "norad_id": 66582,
        "name": "STARLINK-35746",
        "group": "last-30-days",
        "lat": -22.838037887612643,
        "lon": 122.2898554005238,
        "alt_km": 399.9814848458782,
        "timestamp": "2025-12-07T22:37:41.857635+00:00",
        "meta_object_name": "STARLINK-35746",
        "meta_object_id": "2025-268AB",
        "meta_epoch": "2025-12-07T06:00:04.999968",
        "meta_mean_motion": 15.59233017,
        "meta_eccentricity": 0.0001634,
        "meta_inclination": 43.0003,
        "meta_ra_of_asc_node": 153.2545,
        "meta_arg_of_pericenter": 272.4824,
        "meta_mean_anomaly": 123.2363,
        "meta_ephemeris_type": 0,
        "meta_classification_type": "U",
        "meta_norad_cat_id": 66582,
        "meta_element_set_no": 999,
        "meta_rev_at_epoch": 378,
        "meta_bstar": -0.028614069,
        "meta_mean_motion_dot": -0.02022517,
        "meta_mean_motion_ddot": 0,
        "tle_line1": "1 66582U 25268AB  25341.25005787 -.02022517  00000+0 -28614-1 0  9991",
        "tle_line2": "2 66582  43.0003 153.2545 0001634 272.4824 123.2363 15.59233017  3781"
      },
      "geometry": {
        "type": "Point",
        "coordinates": [
          122.2898554005238,
          -22.838037887612643
        ]
      }
    },
    {
      "type": "Feature",
      "properties": {
        "norad_id": 66583,
        "name": "STARLINK-35941",
        "group": "last-30-days",
        "lat": -21.663554582191964,
        "lon": 123.92309038984835,
        "alt_km": 399.94584901486905,
        "timestamp": "2025-12-07T22:37:41.857645+00:00",
        "meta_object_name": "STARLINK-35941",
        "meta_object_id": "2025-268AC",
        "meta_epoch": "2025-12-07T06:00:04.999968",
        "meta_mean_motion": 15.59235464,
        "meta_eccentricity": 0.00017378,
        "meta_inclination": 43.0003,
        "meta_ra_of_asc_node": 153.2499,
        "meta_arg_of_pericenter": 269.8804,
        "meta_mean_anomaly": 127.7511,
        "meta_ephemeris_type": 0,
        "meta_classification_type": "U",
        "meta_norad_cat_id": 66583,
        "meta_element_set_no": 999,
        "meta_rev_at_epoch": 378,
        "meta_bstar": -0.028627982,
        "meta_mean_motion_dot": -0.02023623,
        "meta_mean_motion_ddot": 0,
        "tle_line1": "1 66583U 25268AC  25341.25005787 -.02023623  00000+0 -28628-1 0  9996",
        "tle_line2": "2 66583  43.0003 153.2499 0001737 269.8804 127.7511 15.59235464  3784"
      },
      "geometry": {
        "type": "Point",
        "coordinates": [
          123.92309038984835,
          -21.663554582191964
        ]
      }
    },
    {
      "type": "Feature",
      "properties": {
        "norad_id": 66584,
        "name": "STARLINK-35939",
        "group": "last-30-days",
        "lat": -20.473144752995264,
        "lon": 125.52986230681128,
        "alt_km": 399.7984008639705,
        "timestamp": "2025-12-07T22:37:41.857655+00:00",
        "meta_object_name": "STARLINK-35939",
        "meta_object_id": "2025-268AD",
        "meta_epoch": "2025-12-07T06:00:04.999968",
        "meta_mean_motion": 15.59233722,
        "meta_eccentricity": 0.00017368,
        "meta_inclination": 43.0003,
        "meta_ra_of_asc_node": 153.2453,
        "meta_arg_of_pericenter": 272.8183,
        "meta_mean_anomaly": 126.7308,
        "meta_ephemeris_type": 0,
        "meta_classification_type": "U",
        "meta_norad_cat_id": 66584,
        "meta_element_set_no": 999,
        "meta_rev_at_epoch": 378,
        "meta_bstar": -0.028579923,
        "meta_mean_motion_dot": -0.02020535,
        "meta_mean_motion_ddot": 0,
        "tle_line1": "1 66584U 25268AD  25341.25005787 -.02020535  00000+0 -28580-1 0  9993",
        "tle_line2": "2 66584  43.0003 153.2453 0001736 272.8183 126.7308 15.59233722  3786"
      },
      "geometry": {
        "type": "Point",
        "coordinates": [
          125.52986230681128,
          -20.473144752995264
        ]
      }
    },
    {
      "type": "Feature",
      "properties": {
        "norad_id": 66585,
        "name": "STARLINK-35963",
        "group": "last-30-days",
        "lat": -19.27031997006363,
        "lon": 127.10856191916162,
        "alt_km": 399.72425578457205,
        "timestamp": "2025-12-07T22:37:41.857665+00:00",
        "meta_object_name": "STARLINK-35963",
        "meta_object_id": "2025-268AE",
        "meta_epoch": "2025-12-07T06:00:04.999968",
        "meta_mean_motion": 15.59233667,
        "meta_eccentricity": 0.00017243,
        "meta_inclination": 43,
        "meta_ra_of_asc_node": 153.2407,
        "meta_arg_of_pericenter": 273.6661,
        "meta_mean_anomaly": 127.8007,
        "meta_ephemeris_type": 0,
        "meta_classification_type": "U",
        "meta_norad_cat_id": 66585,
        "meta_element_set_no": 999,
        "meta_rev_at_epoch": 378,
        "meta_bstar": -0.028597633,
        "meta_mean_motion_dot": -0.02021616,
        "meta_mean_motion_ddot": 0,
        "tle_line1": "1 66585U 25268AE  25341.25005787 -.02021616  00000+0 -28598-1 0  9994",
        "tle_line2": "2 66585  43.0000 153.2407 0001724 273.6661 127.8007 15.59233667  3786"
      },
      "geometry": {
        "type": "Point",
        "coordinates": [
          127.10856191916162,
          -19.27031997006363
        ]
      }
    }
  ]
}